STARLINK-5293           
1 55295U 23010AC  26068.69646757  .00000976  00000+0  89594-4 0  9994
2 55295  70.0001  44.5723 0003053 264.6455  95.4356 14.98333796172784
SHIYAN-24C 01           
1 58650U 23206A   26068.89348774  .00002076  00000+0  18089-3 0  9992
2 58650  97.3976  41.7846 0003675 132.3262 227.8273 14.97903598120444
